[{"OBJECT_NAME":"KUIPER-00300","OBJECT_ID":"2026-072AA","EPOCH":"2026-04-12T06:00:02.000160","MEAN_MOTION":15.36791554,"ECCENTRICITY":0.00082212,"INCLINATION":51.8671,"RA_OF_ASC_NODE":135.8445,"ARG_OF_PERICENTER":139.6135,"MEAN_ANOMALY":295.3269,"EPHEMERIS_TYPE":0,"CLASSIFICATION_TYPE":"U","NORAD_CAT_ID":68597,"ELEMENT_SET_NO":999,"REV_AT_EPOCH":130,"BSTAR":-0.00060913543,"MEAN_MOTION_DOT":-0.00022594,"MEAN_MOTION_DDOT":0},{"OBJECT_NAME":"KUIPER-00301","OBJECT_ID":"2026-072AB","EPOCH":"2026-04-12T06:00:02.000160","MEAN_MOTION":15.36465631,"ECCENTRICITY":0.00089377,"INCLINATION":51.8648,"RA_OF_ASC_NODE":135.8625,"ARG_OF_PERICENTER":142.9519,"MEAN_ANOMALY":283.1054,"EPHEMERIS_TYPE":0,"CLASSIFICATION_TYPE":"U","NORAD_CAT_ID":68598,"ELEMENT_SET_NO":999,"REV_AT_EPOCH":197,"BSTAR":-0.00065413569,"MEAN_MOTION_DOT":-0.00023985,"MEAN_MOTION_DDOT":0},{"OBJECT_NAME":"KUIPER-00304","OBJECT_ID":"2026-072AC","EPOCH":"2026-04-12T06:00:02.000160","MEAN_MOTION":15.36375626,"ECCENTRICITY":0.00095999,"INCLINATION":51.8661,"RA_OF_ASC_NODE":135.8675,"ARG_OF_PERICENTER":142.6315,"MEAN_ANOMALY":280.9576,"EPHEMERIS_TYPE":0,"CLASSIFICATION_TYPE":"U","NORAD_CAT_ID":68599,"ELEMENT_SET_NO":999,"REV_AT_EPOCH":239,"BSTAR":-0.00065671257,"MEAN_MOTION_DOT":-0.00024014,"MEAN_MOTION_DDOT":0},{"OBJECT_NAME":"KUIPER-00317","OBJECT_ID":"2026-072AD","EPOCH":"2026-04-12T06:00:02.000160","MEAN_MOTION":15.36695377,"ECCENTRICITY":0.00086398,"INCLINATION":51.8684,"RA_OF_ASC_NODE":135.8507,"ARG_OF_PERICENTER":134.9782,"MEAN_ANOMALY":296.8119,"EPHEMERIS_TYPE":0,"CLASSIFICATION_TYPE":"U","NORAD_CAT_ID":68600,"ELEMENT_SET_NO":999,"REV_AT_EPOCH":193,"BSTAR":-0.00061243664,"MEAN_MOTION_DOT":-0.00022648,"MEAN_MOTION_DDOT":0},{"OBJECT_NAME":"KUIPER-00320","OBJECT_ID":"2026-072AE","EPOCH":"2026-04-12T06:00:02.000160","MEAN_MOTION":15.35885627,"ECCENTRICITY":0.00113763,"INCLINATION":51.8598,"RA_OF_ASC_NODE":135.8967,"ARG_OF_PERICENTER":148.5153,"MEAN_ANOMALY":260.0297,"EPHEMERIS_TYPE":0,"CLASSIFICATION_TYPE":"U","NORAD_CAT_ID":68601,"ELEMENT_SET_NO":999,"REV_AT_EPOCH":238,"BSTAR":-0.00066759885,"MEAN_MOTION_DOT":-0.00024044,"MEAN_MOTION_DDOT":0},{"OBJECT_NAME":"STP-S29A OBJECT A","OBJECT_ID":"2026-074A","EPOCH":"2026-04-12T04:24:42.656256","MEAN_MOTION":15.23175388,"ECCENTRICITY":0.00160058,"INCLINATION":60.0177,"RA_OF_ASC_NODE":71.3604,"ARG_OF_PERICENTER":309.0222,"MEAN_ANOMALY":50.9432,"EPHEMERIS_TYPE":0,"CLASSIFICATION_TYPE":"U","NORAD_CAT_ID":68627,"ELEMENT_SET_NO":999,"REV_AT_EPOCH":72,"BSTAR":0.00030491452,"MEAN_MOTION_DOT":7.013e-5,"MEAN_MOTION_DDOT":0},{"OBJECT_NAME":"STP-S29A OBJECT B","OBJECT_ID":"2026-074B","EPOCH":"2026-04-12T05:58:42.738528","MEAN_MOTION":15.23284618,"ECCENTRICITY":0.00143612,"INCLINATION":60.0225,"RA_OF_ASC_NODE":71.1157,"ARG_OF_PERICENTER":311.9926,"MEAN_ANOMALY":47.993,"EPHEMERIS_TYPE":0,"CLASSIFICATION_TYPE":"U","NORAD_CAT_ID":68628,"ELEMENT_SET_NO":999,"REV_AT_EPOCH":72,"BSTAR":0.00023497802,"MEAN_MOTION_DOT":5.352e-5,"MEAN_MOTION_DDOT":0},{"OBJECT_NAME":"STP-S29A OBJECT C","OBJECT_ID":"2026-074C","EPOCH":"2026-04-12T04:22:22.427328","MEAN_MOTION":15.23707814,"ECCENTRICITY":0.00177246,"INCLINATION":60.0214,"RA_OF_ASC_NODE":71.3592,"ARG_OF_PERICENTER":318.4106,"MEAN_ANOMALY":41.5625,"EPHEMERIS_TYPE":0,"CLASSIFICATION_TYPE":"U","NORAD_CAT_ID":68629,"ELEMENT_SET_NO":999,"REV_AT_EPOCH":72,"BSTAR":0.00032280602,"MEAN_MOTION_DOT":7.569e-5,"MEAN_MOTION_DDOT":0},{"OBJECT_NAME":"STP-S29A OBJECT D","OBJECT_ID":"2026-074D","EPOCH":"2026-04-12T05:55:25.290336","MEAN_MOTION":15.24008681,"ECCENTRICITY":0.00156771,"INCLINATION":60.0217,"RA_OF_ASC_NODE":71.1034,"ARG_OF_PERICENTER":323.387,"MEAN_ANOMALY":36.6138,"EPHEMERIS_TYPE":0,"CLASSIFICATION_TYPE":"U","NORAD_CAT_ID":68630,"ELEMENT_SET_NO":999,"REV_AT_EPOCH":72,"BSTAR":0.00016397633,"MEAN_MOTION_DOT":3.733e-5,"MEAN_MOTION_DDOT":0},{"OBJECT_NAME":"STP-S29A OBJECT E","OBJECT_ID":"2026-074E","EPOCH":"2026-04-12T05:55:21.403200","MEAN_MOTION":15.24023709,"ECCENTRICITY":0.00162593,"INCLINATION":60.0212,"RA_OF_ASC_NODE":71.1016,"ARG_OF_PERICENTER":323.367,"MEAN_ANOMALY":36.6298,"EPHEMERIS_TYPE":0,"CLASSIFICATION_TYPE":"U","NORAD_CAT_ID":68631,"ELEMENT_SET_NO":999,"REV_AT_EPOCH":73,"BSTAR":0.00017173635,"MEAN_MOTION_DOT":3.926e-5,"MEAN_MOTION_DDOT":0},{"OBJECT_NAME":"STP-S29A OBJECT F","OBJECT_ID":"2026-074F","EPOCH":"2026-04-12T07:27:42.040800","MEAN_MOTION":15.24517956,"ECCENTRICITY":0.00166459,"INCLINATION":60.0311,"RA_OF_ASC_NODE":70.8538,"ARG_OF_PERICENTER":329.1898,"MEAN_ANOMALY":30.8204,"EPHEMERIS_TYPE":0,"CLASSIFICATION_TYPE":"U","NORAD_CAT_ID":68632,"ELEMENT_SET_NO":999,"REV_AT_EPOCH":73,"BSTAR":0.00032718654,"MEAN_MOTION_DOT":7.865e-5,"MEAN_MOTION_DDOT":0},{"OBJECT_NAME":"STP-S29A OBJECT G","OBJECT_ID":"2026-074G","EPOCH":"2026-04-12T07:25:41.316672","MEAN_MOTION":15.24946774,"ECCENTRICITY":0.0017244,"INCLINATION":60.0217,"RA_OF_ASC_NODE":70.8365,"ARG_OF_PERICENTER":335.8187,"MEAN_ANOMALY":24.2083,"EPHEMERIS_TYPE":0,"CLASSIFICATION_TYPE":"U","NORAD_CAT_ID":68633,"ELEMENT_SET_NO":999,"REV_AT_EPOCH":73,"BSTAR":0.00023799549,"MEAN_MOTION_DOT":5.716e-5,"MEAN_MOTION_DDOT":0},{"OBJECT_NAME":"STP-S29A OBJECT H","OBJECT_ID":"2026-074H","EPOCH":"2026-04-12T02:40:52.596768","MEAN_MOTION":15.25315542,"ECCENTRICITY":0.00182,"INCLINATION":60.0209,"RA_OF_ASC_NODE":71.5851,"ARG_OF_PERICENTER":339.3063,"MEAN_ANOMALY":20.7279,"EPHEMERIS_TYPE":0,"CLASSIFICATION_TYPE":"U","NORAD_CAT_ID":68634,"ELEMENT_SET_NO":999,"REV_AT_EPOCH":71,"BSTAR":0.00033601489,"MEAN_MOTION_DOT":8.291e-5,"MEAN_MOTION_DDOT":0},{"OBJECT_NAME":"CANVAS","OBJECT_ID":"2026-074J","EPOCH":"2026-04-12T04:21:25.548480","MEAN_MOTION":15.23923927,"ECCENTRICITY":0.0018098,"INCLINATION":60.023,"RA_OF_ASC_NODE":71.3598,"ARG_OF_PERICENTER":322.3747,"MEAN_ANOMALY":37.6066,"EPHEMERIS_TYPE":0,"CLASSIFICATION_TYPE":"U","NORAD_CAT_ID":68635,"ELEMENT_SET_NO":999,"REV_AT_EPOCH":72,"BSTAR":0.00035452803,"MEAN_MOTION_DOT":8.399e-5,"MEAN_MOTION_DDOT":0},{"OBJECT_NAME":"HULIANWANG DIGUI-164","OBJECT_ID":"2026-076A","EPOCH":"2026-04-11T18:14:31.833024","MEAN_MOTION":13.83107306,"ECCENTRICITY":0.00072073,"INCLINATION":86.4936,"RA_OF_ASC_NODE":67.3125,"ARG_OF_PERICENTER":209.0812,"MEAN_ANOMALY":150.9955,"EPHEMERIS_TYPE":0,"CLASSIFICATION_TYPE":"U","NORAD_CAT_ID":68656,"ELEMENT_SET_NO":999,"REV_AT_EPOCH":41,"BSTAR":-0.0011802731,"MEAN_MOTION_DOT":-1.274e-5,"MEAN_MOTION_DDOT":0},{"OBJECT_NAME":"HULIANWANG DIGUI-165","OBJECT_ID":"2026-076B","EPOCH":"2026-04-11T18:14:21.329376","MEAN_MOTION":13.83165304,"ECCENTRICITY":0.00068861,"INCLINATION":86.4954,"RA_OF_ASC_NODE":67.3148,"ARG_OF_PERICENTER":208.7754,"MEAN_ANOMALY":151.3034,"EPHEMERIS_TYPE":0,"CLASSIFICATION_TYPE":"U","NORAD_CAT_ID":68657,"ELEMENT_SET_NO":999,"REV_AT_EPOCH":41,"BSTAR":-0.0011132745,"MEAN_MOTION_DOT":-1.202e-5,"MEAN_MOTION_DDOT":0}]
