KUIPER-00300
1 68597U 26102.25002315  2.25940-4 6.09135-4 0 0                     
2 68597  51.8671 135.8445 0008221 139.6135 295.3269 15.36791554      
KUIPER-00301
1 68598U 26102.25002315  2.39850-4 6.54136-4 0 0                     
2 68598  51.8648 135.8625 0008937 142.9519 283.1054 15.36465631      
KUIPER-00304
1 68599U 26102.25002315  2.40140-4 6.56713-4 0 0                     
2 68599  51.8661 135.8675 0009599 142.6315 280.9576 15.36375626      
KUIPER-00317
1 68600U 26102.25002315  2.26480-4 6.12437-4 0 0                     
2 68600  51.8684 135.8507 0008639 134.9782 296.8119 15.36695377      
KUIPER-00320
1 68601U 26102.25002315  2.40440-4 6.67599-4 0 0                     
2 68601  51.8598 135.8967 0011376 148.5153 260.0297 15.35885627      
STP-S29A OBJECT A
1 68627U 26102.18381944  7.01300-5 3.04915-4 0 0                     
2 68627  60.0177  71.3604 0016005 309.0222  50.9432 15.23175388      
STP-S29A OBJECT B
1 68628U 26102.24909722  5.35200-5 2.34978-4 0 0                     
2 68628  60.0225  71.1157 0014361 311.9926  47.9930 15.23284618      
STP-S29A OBJECT C
1 68629U 26102.18219907  7.56900-5 3.22806-4 0 0                     
2 68629  60.0214  71.3592 0017724 318.4106  41.5625 15.23707814      
STP-S29A OBJECT D
1 68630U 26102.24681713  3.73300-5 1.63976-4 0 0                     
2 68630  60.0217  71.1034 0015677 323.3870  36.6138 15.24008681      
STP-S29A OBJECT E
1 68631U 26102.24677083  3.92600-5 1.71736-4 0 0                     
2 68631  60.0212  71.1016 0016259 323.3670  36.6298 15.24023709      
CANVAS
1 68635U 26102.18153935  8.39900-5 3.54528-4 0 0                     
2 68635  60.0230  71.3598 0018098 322.3747  37.6066 15.23923927      
HULIANWANG DIGUI-164
1 68656U 26101.76008102  1.27400-5 1.18027-3 0 0                     
2 68656  86.4936  67.3125 0007207 209.0812 150.9955 13.83107306      
HULIANWANG DIGUI-165
1 68657U 26101.75996528  1.20200-5 1.11327-3 0 0                     
2 68657  86.4954  67.3148 0006886 208.7754 151.3034 13.83165304      
STP-S29A OBJECT F
1 68632U 26102.31090278  7.86500-5 3.27187-4 0 0                     
2 68632  60.0311  70.8538 0016645 329.1898  30.8204 15.24517956      
STP-S29A OBJECT G
1 68633U 26102.30950231  5.71600-5 2.37995-4 0 0                     
2 68633  60.0217  70.8365 0017244 335.8187  24.2083 15.24946774      
STP-S29A OBJECT H
1 68634U 26102.11171296  8.29100-5 3.36015-4 0 0                     
2 68634  60.0209  71.5851 0018200 339.3063  20.7279 15.25315542      
